[{"OBJECT_NAME":"LINGQIAO VIDEO A","OBJECT_ID":"2015-057B","EPOCH":"2026-03-09T23:59:14.455968","MEAN_MOTION":14.77240393,"ECCENTRICITY":0.00154698,"INCLINATION":97.6615,"RA_OF_ASC_NODE":68.7182,"ARG_OF_PERICENTER":229.1466,"MEAN_ANOMALY":130.8405,"EPHEMERIS_TYPE":0,"CLASSIFICATION_TYPE":"U","NORAD_CAT_ID":40959,"ELEMENT_SET_NO":999,"REV_AT_EPOCH":56076,"BSTAR":0.00010661468,"MEAN_MOTION_DOT":7.08e-6,"MEAN_MOTION_DDOT":0},{"OBJECT_NAME":"KUIPER-00172","OBJECT_ID":"2025-217Z","EPOCH":"2026-03-09T22:00:01.999584","MEAN_MOTION":14.79971326,"ECCENTRICITY":8.187e-5,"INCLINATION":51.8996,"RA_OF_ASC_NODE":17.7852,"ARG_OF_PERICENTER":353.3149,"MEAN_ANOMALY":271.5912,"EPHEMERIS_TYPE":0,"CLASSIFICATION_TYPE":"U","NORAD_CAT_ID":65785,"ELEMENT_SET_NO":999,"REV_AT_EPOCH":375,"BSTAR":-0.0031208679,"MEAN_MOTION_DOT":-0.0002395,"MEAN_MOTION_DDOT":0}]
